{"type": "FeatureCollection", "features": [{"type": "Feature", "properties": {"norad_id": 32275, "name": "COSMOS 2433 (720)", "group": "glo-ops", "lat": 55.236086421148165, "lon": 101.72590798670834, "alt_km": 19133.928268155225, "timestamp": "2025-12-07T14:37:05.465763+00:00", "meta": {"OBJECT_NAME": "COSMOS 2433 (720)", "OBJECT_ID": "2007-052A", "EPOCH": "2025-12-05T02:41:16.127808", "MEAN_MOTION": 2.1310391, "ECCENTRICITY": 0.00054971, "INCLINATION": 65.6874, "RA_OF_ASC_NODE": 322.462, "ARG_OF_PERICENTER": 253.0747, "MEAN_ANOMALY": 106.8638, "EPHEMERIS_TYPE": 0, "CLASSIFICATION_TYPE": "U", "NORAD_CAT_ID": 32275, "ELEMENT_SET_NO": 999, "REV_AT_EPOCH": 14092, "BSTAR": 0, "MEAN_MOTION_DOT": -4.7e-07, "MEAN_MOTION_DDOT": 0}, "tle": {"line1": "1 32275U 07052A   25339.11199222 -.00000047  00000+0  00000+0 0  9992", "line2": "2 32275  65.6874 322.4620 0005497 253.0747 106.8638  2.13103910140927"}}, "geometry": {"type": "Point", "coordinates": [101.72590798670834, 55.236086421148165]}}, {"type": "Feature", "properties": {"norad_id": 32276, "name": "COSMOS 2432 (719)", "group": "glo-ops", "lat": 52.30301379011891, "lon": -1.7392433683511772, "alt_km": 19133.104738522525, "timestamp": "2025-12-07T14:37:05.465786+00:00", "meta": {"OBJECT_NAME": "COSMOS 2432 (719)", "OBJECT_ID": "2007-052B", "EPOCH": "2025-12-04T17:08:15.006912", "MEAN_MOTION": 2.13103047, "ECCENTRICITY": 0.00112577, "INCLINATION": 65.7035, "RA_OF_ASC_NODE": 322.5994, "ARG_OF_PERICENTER": 311.684, "MEAN_ANOMALY": 47.4656, "EPHEMERIS_TYPE": 0, "CLASSIFICATION_TYPE": "U", "NORAD_CAT_ID": 32276, "ELEMENT_SET_NO": 999, "REV_AT_EPOCH": 14093, "BSTAR": 0, "MEAN_MOTION_DOT": -4.6e-07, "MEAN_MOTION_DDOT": 0}, "tle": {"line1": "1 32276U 07052B   25338.71406258 -.00000046  00000+0  00000+0 0  9997", "line2": "2 32276  65.7035 322.5994 0011257 311.6840  47.4656  2.13103047140931"}}, "geometry": {"type": "Point", "coordinates": [-1.7392433683511772, 52.30301379011891]}}, {"type": "Feature", "properties": {"norad_id": 32393, "name": "COSMOS 2434 (721)", "group": "glo-ops", "lat": 5.5455086894057075, "lon": -158.94102760005367, "alt_km": 19124.91673990655, "timestamp": "2025-12-07T14:37:05.465801+00:00", "meta": {"OBJECT_NAME": "COSMOS 2434 (721)", "OBJECT_ID": "2007-065A", "EPOCH": "2025-12-05T10:54:52.087392", "MEAN_MOTION": 2.1310119, "ECCENTRICITY": 0.00044378, "INCLINATION": 64.3147, "RA_OF_ASC_NODE": 198.4493, "ARG_OF_PERICENTER": 70.9033, "MEAN_ANOMALY": 82.6626, "EPHEMERIS_TYPE": 0, "CLASSIFICATION_TYPE": "U", "NORAD_CAT_ID": 32393, "ELEMENT_SET_NO": 999, "REV_AT_EPOCH": 13964, "BSTAR": 0, "MEAN_MOTION_DOT": 8.7e-07, "MEAN_MOTION_DDOT": 0}, "tle": {"line1": "1 32393U 07065A   25339.45476953  .00000087  00000+0  00000+0 0  9996", "line2": "2 32393  64.3147 198.4493 0004437  70.9033  82.6626  2.13101190139646"}}, "geometry": {"type": "Point", "coordinates": [-158.94102760005367, 5.5455086894057075]}}, {"type": "Feature", "properties": {"norad_id": 32395, "name": "COSMOS 2436 (723)", "group": "glo-ops", "lat": 35.81147342146079, "lon": -1.8614458282661512, "alt_km": 19155.156504124854, "timestamp": "2025-12-07T14:37:05.465814+00:00", "meta": {"OBJECT_NAME": "COSMOS 2436 (723)", "OBJECT_ID": "2007-065C", "EPOCH": "2025-12-06T17:19:11.728128", "MEAN_MOTION": 2.131, "ECCENTRICITY": 0.00177361, "INCLINATION": 64.3235, "RA_OF_ASC_NODE": 198.4768, "ARG_OF_PERICENTER": 9.0912, "MEAN_ANOMALY": 169.4932, "EPHEMERIS_TYPE": 0, "CLASSIFICATION_TYPE": "U", "NORAD_CAT_ID": 32395, "ELEMENT_SET_NO": 999, "REV_AT_EPOCH": 13962, "BSTAR": 0, "MEAN_MOTION_DOT": 6.8e-07, "MEAN_MOTION_DDOT": 0}, "tle": {"line1": "1 32395U 07065C   25340.72166352  .00000068  00000+0  00000+0 0  9998", "line2": "2 32395  64.3235 198.4768 0017736   9.0912 169.4932  2.13100000139627"}}, "geometry": {"type": "Point", "coordinates": [-1.8614458282661512, 35.81147342146079]}}, {"type": "Feature", "properties": {"norad_id": 36111, "name": "COSMOS 2456 (730)", "group": "glo-ops", "lat": 15.039180616683861, "lon": -109.70354108186993, "alt_km": 19133.704478156506, "timestamp": "2025-12-07T14:37:05.465827+00:00", "meta": {"OBJECT_NAME": "COSMOS 2456 (730)", "OBJECT_ID": "2009-070A", "EPOCH": "2025-12-06T21:12:24.583968", "MEAN_MOTION": 2.13103425, "ECCENTRICITY": 0.00030121, "INCLINATION": 64.8968, "RA_OF_ASC_NODE": 77.5382, "ARG_OF_PERICENTER": 297.7159, "MEAN_ANOMALY": 29.056, "EPHEMERIS_TYPE": 0, "CLASSIFICATION_TYPE": "U", "NORAD_CAT_ID": 36111, "ELEMENT_SET_NO": 999, "REV_AT_EPOCH": 12432, "BSTAR": 0, "MEAN_MOTION_DOT": -1.7e-07, "MEAN_MOTION_DDOT": 0}, "tle": {"line1": "1 36111U 09070A   25340.88361787 -.00000017  00000+0  00000+0 0  9997", "line2": "2 36111  64.8968  77.5382 0003012 297.7159  29.0560  2.13103425124328"}}, "geometry": {"type": "Point", "coordinates": [-109.70354108186993, 15.039180616683861]}}, {"type": "Feature", "properties": {"norad_id": 36112, "name": "COSMOS 2457 (733)", "group": "glo-ops", "lat": -56.748462001696204, "lon": 31.784219927183315, "alt_km": 19144.845674765114, "timestamp": "2025-12-07T14:37:05.465854+00:00", "meta": {"OBJECT_NAME": "COSMOS 2457 (733)", "OBJECT_ID": "2009-070B", "EPOCH": "2025-12-06T07:10:29.262720", "MEAN_MOTION": 2.13100792, "ECCENTRICITY": 0.00047992, "INCLINATION": 64.8819, "RA_OF_ASC_NODE": 77.406, "ARG_OF_PERICENTER": 157.5732, "MEAN_ANOMALY": 209.8629, "EPHEMERIS_TYPE": 0, "CLASSIFICATION_TYPE": "U", "NORAD_CAT_ID": 36112, "ELEMENT_SET_NO": 999, "REV_AT_EPOCH": 12432, "BSTAR": 0, "MEAN_MOTION_DOT": -1.9e-07, "MEAN_MOTION_DDOT": 0}, "tle": {"line1": "1 36112U 09070B   25340.29894980 -.00000019  00000+0  00000+0 0  9991", "line2": "2 36112  64.8819  77.4060 0004799 157.5732 209.8629  2.13100792124327"}}, "geometry": {"type": "Point", "coordinates": [31.784219927183315, -56.748462001696204]}}, {"type": "Feature", "properties": {"norad_id": 36402, "name": "COSMOS 2460 (732)", "group": "glo-ops", "lat": -57.574852991122434, "lon": -84.84870428670612, "alt_km": 19129.23754304524, "timestamp": "2025-12-07T14:37:05.465868+00:00", "meta": {"OBJECT_NAME": "COSMOS 2460 (732)", "OBJECT_ID": "2010-007C", "EPOCH": "2025-12-05T09:49:39.891072", "MEAN_MOTION": 2.13106027, "ECCENTRICITY": 0.00027397, "INCLINATION": 65.5337, "RA_OF_ASC_NODE": 321.021, "ARG_OF_PERICENTER": 272.5603, "MEAN_ANOMALY": 131.8824, "EPHEMERIS_TYPE": 0, "CLASSIFICATION_TYPE": "U", "NORAD_CAT_ID": 36402, "ELEMENT_SET_NO": 999, "REV_AT_EPOCH": 12260, "BSTAR": 0, "MEAN_MOTION_DOT": -4.8e-07, "MEAN_MOTION_DDOT": 0}, "tle": {"line1": "1 36402U 10007C   25339.40948948 -.00000048  00000+0  00000+0 0  9992", "line2": "2 36402  65.5337 321.0210 0002739 272.5603 131.8824  2.13106027122601"}}, "geometry": {"type": "Point", "coordinates": [-84.84870428670612, -57.574852991122434]}}, {"type": "Feature", "properties": {"norad_id": 37867, "name": "COSMOS 2476 (744)", "group": "glo-ops", "lat": 59.47579257170395, "lon": 131.00859350600822, "alt_km": 19181.486066554466, "timestamp": "2025-12-07T14:37:05.465880+00:00", "meta": {"OBJECT_NAME": "COSMOS 2476 (744)", "OBJECT_ID": "2011-064A", "EPOCH": "2025-12-02T19:57:36.313920", "MEAN_MOTION": 2.13101261, "ECCENTRICITY": 0.00239603, "INCLINATION": 65.1573, "RA_OF_ASC_NODE": 79.5068, "ARG_OF_PERICENTER": 233.4935, "MEAN_ANOMALY": 133.1658, "EPHEMERIS_TYPE": 0, "CLASSIFICATION_TYPE": "U", "NORAD_CAT_ID": 37867, "ELEMENT_SET_NO": 999, "REV_AT_EPOCH": 10958, "BSTAR": 0, "MEAN_MOTION_DOT": -2.2e-07, "MEAN_MOTION_DDOT": 0}, "tle": {"line1": "1 37867U 11064A   25336.83167030 -.00000022  00000+0  00000+0 0  9993", "line2": "2 37867  65.1573  79.5068 0023960 233.4935 133.1658  2.13101261109581"}}, "geometry": {"type": "Point", "coordinates": [131.00859350600822, 59.47579257170395]}}, {"type": "Feature", "properties": {"norad_id": 37868, "name": "COSMOS 2477 (745)", "group": "glo-ops", "lat": -60.0823213995985, "lon": -47.113970394732625, "alt_km": 19085.579431897626, "timestamp": "2025-12-07T14:37:05.465891+00:00", "meta": {"OBJECT_NAME": "COSMOS 2477 (745)", "OBJECT_ID": "2011-064B", "EPOCH": "2025-12-01T05:34:43.743072", "MEAN_MOTION": 2.1310269, "ECCENTRICITY": 0.00209845, "INCLINATION": 65.1625, "RA_OF_ASC_NODE": 79.6383, "ARG_OF_PERICENTER": 233.8301, "MEAN_ANOMALY": 166.8442, "EPHEMERIS_TYPE": 0, "CLASSIFICATION_TYPE": "U", "NORAD_CAT_ID": 37868, "ELEMENT_SET_NO": 999, "REV_AT_EPOCH": 10954, "BSTAR": 0, "MEAN_MOTION_DOT": -1.2e-07, "MEAN_MOTION_DDOT": 0}, "tle": {"line1": "1 37868U 11064B   25335.23245073 -.00000012  00000+0  00000+0 0  9990", "line2": "2 37868  65.1625  79.6383 0020984 233.8301 166.8442  2.13102690109542"}}, "geometry": {"type": "Point", "coordinates": [-47.113970394732625, -60.0823213995985]}}, {"type": "Feature", "properties": {"norad_id": 37869, "name": "COSMOS 2475 (743)", "group": "glo-ops", "lat": -25.616518952978634, "lon": -87.74825715352749, "alt_km": 19082.32466868741, "timestamp": "2025-12-07T14:37:05.465903+00:00", "meta": {"OBJECT_NAME": "COSMOS 2475 (743)", "OBJECT_ID": "2011-064C", "EPOCH": "2025-12-06T20:41:38.457024", "MEAN_MOTION": 2.13101363, "ECCENTRICITY": 0.00262183, "INCLINATION": 65.1726, "RA_OF_ASC_NODE": 79.4678, "ARG_OF_PERICENTER": 248.5311, "MEAN_ANOMALY": 107.1127, "EPHEMERIS_TYPE": 0, "CLASSIFICATION_TYPE": "U", "NORAD_CAT_ID": 37869, "ELEMENT_SET_NO": 999, "REV_AT_EPOCH": 10966, "BSTAR": 0, "MEAN_MOTION_DOT": -1.4e-07, "MEAN_MOTION_DDOT": 0}, "tle": {"line1": "1 37869U 11064C   25340.86225066 -.00000014  00000+0  00000+0 0  9998", "line2": "2 37869  65.1726  79.4678 0026218 248.5311 107.1127  2.13101363109667"}}, "geometry": {"type": "Point", "coordinates": [-87.74825715352749, -25.616518952978634]}}]}